{
  "type": "FeatureCollection",
  "features": [
    {
      "type": "Feature",
      "geometry": { "type": "Point", "coordinates": [124.9578, -17.4089] },
      "properties": {
        "name": "Bandilngan — Windjana Gorge Mini-Tunnel",
        "location": "Napier Range, Gibb River Road",
        "type": "Limestone Breccia Squeeze Tunnel",
        "access": "4WD recommended — corrugated roads",
        "comment": "To enter the famous gorge trail you walk through a small natural split-rock tunnel corridor. Instant cave vibe before a massive canyon filled with freshwater crocodiles."
      }
    },
    {
      "type": "Feature",
      "geometry": { "type": "Point", "coordinates": [115.0292, -34.2505] },
      "properties": {
        "name": "Cosy Corner Sea Caves",
        "location": "Augusta Region",
        "type": "Ocean Caves",
        "access": "2WD",
        "comment": "South of the car park, visible along the limestone cliffs of the beach."
      }
    },
    {
      "type": "Feature",
      "geometry": { "type": "Point", "coordinates": [115.0232, -34.0415] },
      "properties": {
        "name": "Calgardup Cave",
        "location": "Margaret River Region",
        "type": "Limestone — Semi-Guided",
        "access": "2WD",
        "comment": "Torches and helmets provided. Great boardwalks over seasonal water features. Contains a stream that trickles through year-round, carrying nutrients to tiny cave creatures. Also the information and booking centre for Leeuwin-Naturaliste National Park adventure caves."
      }
    },
    {
      "type": "Feature",
      "geometry": { "type": "Point", "coordinates": [113.9934, -22.0911] },
      "properties": {
        "name": "C-96 Anomaly Cave Exterior",
        "location": "Cape Range National Park, Exmouth",
        "type": "Wild Subterranean Karst — Closed Entry",
        "access": "4WD — rugged walk",
        "comment": "Cape Range has over 700 highly sensitive wild karst caves and is one of the most significant cave fauna areas on Earth. Home to Australia's only two troglobitic fish — the blind gudgeon and blind cave eel. Relict fauna from a much wetter past. Entry not permitted due to safety and protection of rare bats and troglobites."
      }
    },
    {
      "type": "Feature",
      "geometry": { "type": "Point", "coordinates": [119.9833, -33.9168] },
      "properties": {
        "name": "Cave Point",
        "location": "Fitzgerald River National Park, Hopetoun / Bremer Bay",
        "type": "Coastal Cavern Ledge",
        "access": "2WD",
        "comment": "Incredible coastal viewing platform looking directly over a collapsed limestone and spongolite sea cave where the Southern Ocean crashes into the cliff base."
      }
    },
    {
      "type": "Feature",
      "geometry": { "type": "Point", "coordinates": [115.6861, -31.5492] },
      "properties": {
        "name": "Crystal Cave",
        "location": "Yanchep National Park",
        "type": "Stream Cave — Show Cave",
        "access": "2WD",
        "comment": "Perth's only metropolitan tourist cave. Main tour requires a ticket. Surrounding paths show collapsed limestone karst depressions and historic stone infrastructure. Root mat communities harbour rare aquatic cave animals."
      }
    },
    {
      "type": "Feature",
      "geometry": { "type": "Point", "coordinates": [125.1436, -17.6053] },
      "properties": {
        "name": "Dimalurru — Tunnel Creek",
        "location": "King Leopold Ranges, Napier Range",
        "type": "Self-Guided River Tunnel",
        "access": "4WD only — seasonal",
        "comment": "WA's oldest cave system. A breathtaking 750m natural tunnel through 350-million-year-old Devonian reef limestone, up to 20m high and 15m wide. Stalactites, permanent pools, ghost bats, fruit bats and freshwater crocodiles inside. Roof collapsed near centre letting in daylight. Historic hideout of Bunuba leader Jandamarra, killed at the entrance in 1897. Aboriginal rock paintings on cave walls."
      }
    },
    {
      "type": "Feature",
      "geometry": { "type": "Point", "coordinates": [116.4700, -33.6700] },
      "properties": {
        "name": "Devil's Lair",
        "location": "Witchcliffe area, south-west WA (closed archaeological site)",
        "type": "Archaeological Cave — Closed to Public",
        "access": "No public access",
        "comment": "One of Australia's most significant archaeological sites. Stone and bone artefacts, intact campfire ash-beds and mammal bones show Aboriginal people occupied this cave about 50,000 years ago. Children's teeth indicate family groups used it. Stone tools confirm food preparation and camp activities. Closed to visitors to protect the site."
      }
    },
    {
      "type": "Feature",
      "geometry": { "type": "Point", "coordinates": [118.5611, -22.4764] },
      "properties": {
        "name": "Fern Pool & Circular Pool Caverns",
        "location": "Karijini National Park, Pilbara",
        "type": "Ironstone Gorge Shelters",
        "access": "2WD — corrugated roads",
        "comment": "Massive collapsed rock amphitheatres with overhanging ironstone ledges, hidden mossy grottos and small rock cavities. Scenic rather than deep subterranean."
      }
    },
    {
      "type": "Feature",
      "geometry": { "type": "Point", "coordinates": [115.0384, -34.0950] },
      "properties": {
        "name": "Giants Cave",
        "location": "Forest Grove / Boranup",
        "type": "Wild Adventure Cave",
        "access": "2WD",
        "comment": "Pitch black self-guided exploration. Entered via a spectacular collapsed doline almost 100m in diameter, plunging 86m into the earth. Vertical ladder climbs, boulder scrambles and tight squeezes through the Chimney. Hard hats and torches mandatory. One of the biggest and deepest caves on the Leeuwin-Naturaliste Ridge."
      }
    },
    {
      "type": "Feature",
      "geometry": { "type": "Point", "coordinates": [115.1014, -34.1864] },
      "properties": {
        "name": "Jewel Cave",
        "location": "Augusta / Deepdene",
        "type": "Limestone — Show Cave",
        "access": "2WD",
        "comment": "WA's largest show cave. Named after the Jewel Casket formation in its lower section. Home to one of the longest straw stalactites in the world. Features lavish cave formations ranging from tiny crystal clusters to enormous flowstones that glow gold in artificial light."
      }
    },
    {
      "type": "Feature",
      "geometry": { "type": "Point", "coordinates": [115.0318, -34.0805] },
      "properties": {
        "name": "Lake Cave",
        "location": "Boranup / Margaret River",
        "type": "Limestone — Show Cave",
        "access": "2WD",
        "comment": "Features a stunning Suspended Table formation hanging over a permanent crystal lake. One of the most impressive cave entrances in WA — at the bottom of a huge closed depression. The lake is formed by a stream flowing through the cave."
      }
    },
    {
      "type": "Feature",
      "geometry": { "type": "Point", "coordinates": [115.0269, -34.0583] },
      "properties": {
        "name": "Mammoth Cave",
        "location": "Boranup / Margaret River",
        "type": "Limestone — Self-Guided Show Cave",
        "access": "2WD",
        "comment": "One of the south-west's biggest and most spectacular caves. Natural time capsule containing remains of long-extinct megafauna including Zygomaturus trilobus (hippo-sized marsupial), giant echidna Zaglossus hacketti (largest known monotreme), two species of extinct short-faced kangaroo, and thylacine remains. Enormous caverns thickly encrusted with beautiful speleothems."
      }
    },
    {
      "type": "Feature",
      "geometry": { "type": "Point", "coordinates": [113.8422, -22.1481] },
      "properties": {
        "name": "Mandu Mandu Gorge Rock Shelters",
        "location": "Cape Range National Park, Exmouth",
        "type": "Limestone Gorge Caverns",
        "access": "2WD",
        "comment": "Easy walking trail through a dry ancient riverbed with shallow open-face limestone cave shelters in the sheer canyon walls visible from the path."
      }
    },
    {
      "type": "Feature",
      "geometry": { "type": "Point", "coordinates": [126.0686, -18.7227] },
      "properties": {
        "name": "Mimbi Caves",
        "location": "Emanuel Range, east of Fitzroy Crossing",
        "type": "Devonian Limestone Karst Labyrinth",
        "access": "2WD to meeting point — 4WD track to site",
        "comment": "Complex maze of deep limestone fissures and marine fossil walls. Inner sanctuaries require a guided Gooniyandi cultural tour. Outer karst portals visible from base tracks."
      }
    },
    {
      "type": "Feature",
      "geometry": { "type": "Point", "coordinates": [118.9017, -32.4463] },
      "properties": {
        "name": "Mulka's Cave",
        "location": "Hyden — near Wave Rock",
        "type": "Inland Granite Rock Shelter",
        "access": "2WD",
        "comment": "Iconic inland cave near Wave Rock. No deep caving gear needed. Notable for a vast collection of ancient Indigenous handprint art."
      }
    },
    {
      "type": "Feature",
      "geometry": { "type": "Point", "coordinates": [122.0120, -33.8580] },
      "properties": {
        "name": "Mullet Lake Sea Caves",
        "location": "Esperance Region",
        "type": "Limestone Coastal Inlets",
        "access": "4WD — rocky walk",
        "comment": "Small limestone fractures and low-ceiling cave entries along coastal tracks east of Esperance. Best viewed from the exterior."
      }
    },
    {
      "type": "Feature",
      "geometry": { "type": "Point", "coordinates": [115.0336, -33.6494] },
      "properties": {
        "name": "Ngilgi Cave",
        "location": "Yallingup",
        "type": "Limestone — Show Cave",
        "access": "2WD",
        "comment": "The first cave in WA to be opened to tourists — enchanting visitors for over a century. Rich significance in the legends of the local Wardandi Aboriginal people. Features dazzling speleothems. Semi-guided tours available plus adventure tours into deeper sections."
      }
    },
    {
      "type": "Feature",
      "geometry": { "type": "Point", "coordinates": [115.3983, -29.9800] },
      "properties": {
        "name": "Stockyard Gully",
        "location": "Stockyard Gully National Park, near Jurien Bay",
        "type": "Limestone Walkthrough Tunnel Cave",
        "access": "2WD to carpark, short walk",
        "comment": "A spectacular natural tunnel cave you can walk through — three registered caves in one system (Stockyard Tunnel 6E-1, Stockyard Bridge 6E-2, Stockyard Cave 6E-3). Part of a significant Eneabba karst area with numerous dolines and cave systems. Torch recommended. Similar experience to Tunnel Creek but in the mid-west."
      }
    },
    {
      "type": "Feature",
      "geometry": { "type": "Point", "coordinates": [117.9022, -35.1221] },
      "properties": {
        "name": "The Blowholes and Sea Tunnels",
        "location": "Albany, Torndirrup National Park",
        "type": "Sea Fractures — Volcanic Crevices",
        "access": "2WD",
        "comment": "Easy paved walk along dramatic granite coastline. Look right down into coastal fractures where the ocean forces air and water through the rock chambers."
      }
    }
  ]
}
